borough,state,zip
MANHATTAN,NY,10001
MANHATTAN,NY,10002
MANHATTAN,NY,10003
MANHATTAN,NY,10004
MANHATTAN,NY,10005
MANHATTAN,NY,10006
MANHATTAN,NY,10007
MANHATTAN,NY,10008
MANHATTAN,NY,10009
MANHATTAN,NY,10010
MANHATTAN,NY,10011
MANHATTAN,NY,10012
MANHATTAN,NY,10013
MANHATTAN,NY,10014
MANHATTAN,NY,10016
MANHATTAN,NY,10017
MANHATTAN,NY,10018
MANHATTAN,NY,10019
MANHATTAN,NY,10020
MANHATTAN,NY,10021
MANHATTAN,NY,10022
MANHATTAN,NY,10023
MANHATTAN,NY,10024
MANHATTAN,NY,10025
MANHATTAN,NY,10027
MANHATTAN,NY,10028
MANHATTAN,NY,10029
MANHATTAN,NY,10030
MANHATTAN,NY,10031
MANHATTAN,NY,10032
MANHATTAN,NY,10033
MANHATTAN,NY,10034
MANHATTAN,NY,10035
MANHATTAN,NY,10036
MANHATTAN,NY,10037
MANHATTAN,NY,10038
MANHATTAN,NY,10039
MANHATTAN,NY,10040
MANHATTAN,NY,10041
MANHATTAN,NY,10045
MANHATTAN,NY,10055
MANHATTAN,NY,10081
MANHATTAN,NY,10087
MANHATTAN,NY,10101
MANHATTAN,NY,10103
MANHATTAN,NY,10104
MANHATTAN,NY,10105
MANHATTAN,NY,10106
MANHATTAN,NY,10107
MANHATTAN,NY,10108
MANHATTAN,NY,10109
MANHATTAN,NY,10110
MANHATTAN,NY,10111
MANHATTAN,NY,10112
MANHATTAN,NY,10113
MANHATTAN,NY,10114
MANHATTAN,NY,10115
MANHATTAN,NY,10116
MANHATTAN,NY,10118
MANHATTAN,NY,10119
MANHATTAN,NY,10120
MANHATTAN,NY,10121
MANHATTAN,NY,10122
MANHATTAN,NY,10123
MANHATTAN,NY,10128
MANHATTAN,NY,10150
MANHATTAN,NY,10151
MANHATTAN,NY,10152
MANHATTAN,NY,10153
MANHATTAN,NY,10154
MANHATTAN,NY,10155
MANHATTAN,NY,10156
MANHATTAN,NY,10158
MANHATTAN,NY,10159
MANHATTAN,NY,10162
MANHATTAN,NY,10165
MANHATTAN,NY,10166
MANHATTAN,NY,10167
MANHATTAN,NY,10168
MANHATTAN,NY,10169
MANHATTAN,NY,10170
MANHATTAN,NY,10171
MANHATTAN,NY,10172
MANHATTAN,NY,10173
MANHATTAN,NY,10174
MANHATTAN,NY,10175
MANHATTAN,NY,10176
MANHATTAN,NY,10177
MANHATTAN,NY,10178
MANHATTAN,NY,10185
MANHATTAN,NY,10199
MANHATTAN,NY,10212
MANHATTAN,NY,10249
MANHATTAN,NY,10256
MANHATTAN,NY,10259
MANHATTAN,NY,10261
MANHATTAN,NY,10268
MANHATTAN,NY,10270
MANHATTAN,NY,10271
MANHATTAN,NY,10276
MANHATTAN,NY,10278
MANHATTAN,NY,10279
MANHATTAN,NY,10280
MANHATTAN,NY,10281
MANHATTAN,NY,10282
MANHATTAN,NY,10286
BROOKLYN,NY,11201
BROOKLYN,NY,11202
BROOKLYN,NY,11203
BROOKLYN,NY,11204
BROOKLYN,NY,11205
BROOKLYN,NY,11206
BROOKLYN,NY,11207
BROOKLYN,NY,11208
BROOKLYN,NY,11209
BROOKLYN,NY,11210
BROOKLYN,NY,11211
BROOKLYN,NY,11212
BROOKLYN,NY,11213
BROOKLYN,NY,11214
BROOKLYN,NY,11215
BROOKLYN,NY,11216
BROOKLYN,NY,11217
BROOKLYN,NY,11218
BROOKLYN,NY,11219
BROOKLYN,NY,11220
BROOKLYN,NY,11221
BROOKLYN,NY,11222
BROOKLYN,NY,11223
BROOKLYN,NY,11224
BROOKLYN,NY,11225
BROOKLYN,NY,11226
BROOKLYN,NY,11228
BROOKLYN,NY,11229
BROOKLYN,NY,11230
BROOKLYN,NY,11231
BROOKLYN,NY,11232
BROOKLYN,NY,11233
BROOKLYN,NY,11234
BROOKLYN,NY,11235
BROOKLYN,NY,11236
BROOKLYN,NY,11237
BROOKLYN,NY,11238
BROOKLYN,NY,11239
BROOKLYN,NY,11241
BROOKLYN,NY,11242
BROOKLYN,NY,11243
BROOKLYN,NY,11245
BROOKLYN,NY,11247
BROOKLYN,NY,11249
BROOKLYN,NY,11251
BROOKLYN,NY,11252
BROOKLYN,NY,11256
BRONX,NY,10451
BRONX,NY,10452
BRONX,NY,10453
BRONX,NY,10454
BRONX,NY,10455
BRONX,NY,10456
BRONX,NY,10457
BRONX,NY,10458
BRONX,NY,10459
BRONX,NY,10460
BRONX,NY,10461
BRONX,NY,10462
BRONX,NY,10463
BRONX,NY,10464
BRONX,NY,10465
BRONX,NY,10466
BRONX,NY,10467
BRONX,NY,10468
BRONX,NY,10469
BRONX,NY,10470
BRONX,NY,10471
BRONX,NY,10472
BRONX,NY,10473
BRONX,NY,10474
BRONX,NY,10475
QUEENS,NY,11101
QUEENS,NY,11102
QUEENS,NY,11103
QUEENS,NY,11104
QUEENS,NY,11106
QUEENS,NY,11109
QUEENS,NY,11120
QUEENS,NY,11351
QUEENS,NY,11352
QUEENS,NY,11354
QUEENS,NY,11355
QUEENS,NY,11356
QUEENS,NY,11357
QUEENS,NY,11358
QUEENS,NY,11359
QUEENS,NY,11360
QUEENS,NY,11361
QUEENS,NY,11362
QUEENS,NY,11363
QUEENS,NY,11364
QUEENS,NY,11365
QUEENS,NY,11366
QUEENS,NY,11367
QUEENS,NY,11368
QUEENS,NY,11369
QUEENS,NY,11370
QUEENS,NY,11371
QUEENS,NY,11372
QUEENS,NY,11373
QUEENS,NY,11374
QUEENS,NY,11375
QUEENS,NY,11377
QUEENS,NY,11378
QUEENS,NY,11379
QUEENS,NY,11380
QUEENS,NY,11381
QUEENS,NY,11385
QUEENS,NY,11386
QUEENS,NY,11405
QUEENS,NY,11411
QUEENS,NY,11413
QUEENS,NY,11414
QUEENS,NY,11415
QUEENS,NY,11416
QUEENS,NY,11417
QUEENS,NY,11418
QUEENS,NY,11419
QUEENS,NY,11420
QUEENS,NY,11421
QUEENS,NY,11422
QUEENS,NY,11423
QUEENS,NY,11424
QUEENS,NY,11425
QUEENS,NY,11426
QUEENS,NY,11427
QUEENS,NY,11428
QUEENS,NY,11429
QUEENS,NY,11430
QUEENS,NY,11431
QUEENS,NY,11432
QUEENS,NY,11433
QUEENS,NY,11434
QUEENS,NY,11435
QUEENS,NY,11436
QUEENS,NY,11439
QUEENS,NY,11451
QUEENS,NY,11690
QUEENS,NY,11691
QUEENS,NY,11692
QUEENS,NY,11693
QUEENS,NY,11694
QUEENS,NY,11695
QUEENS,NY,11697
STATEN ISLAND,NY,10301
STATEN ISLAND,NY,10302
STATEN ISLAND,NY,10303
STATEN ISLAND,NY,10304
STATEN ISLAND,NY,10305
STATEN ISLAND,NY,10306
STATEN ISLAND,NY,10307
STATEN ISLAND,NY,10308
STATEN ISLAND,NY,10309
STATEN ISLAND,NY,10310
STATEN ISLAND,NY,10311
STATEN ISLAND,NY,10312
STATEN ISLAND,NY,10313
STATEN ISLAND,NY,10314
